{
  "type": "FeatureCollection",
  "features": [
    {
      "type": "Feature",
      "properties": {
        "incident_id": "MSC-ELSA-3-2025-05-24",
        "timestamp": "2025-05-24T13:00:00Z",
        "suspicion_score": 0.9,
        "area_sq_m": 100000,
        "jurisdiction_zone": "Indian EEZ (West Coast - ICG Regional HQ West / Gandhinagar & Mumbai)",
        "responding_unit": "Coast Guard District HQ No. 4 (Kochi)",
        "feature_type": "Oil Slick"
      },
      "geometry": {
        "type": "Polygon",
        "coordinates": [
          [
            [
              75.97742440169112,
              9.3764
            ],
            [
              75.977416579753,
              9.376557091936633
            ],
            [
              75.97739318926813,
              9.376712670992038
            ],
            [
              75.97735445549968,
              9.376865238854869
            ],
            [
              75.97730075147501,
              9.3770133262132
            ],
            [
              75.97723259439326,
              9.377155506904822
            ],
            [
              75.97715064064435,
              9.377290411651947
            ],
            [
              75.9770556794877,
              9.377416741248116
            ],
            [
              75.97694862545117,
              9.377533279070258
            ],
            [
              75.97683050952364,
              9.37763890279544
            ],
            [
              75.97670246922605,
              9.377732595209448
            ],
            [
              75.9765657376565,
              9.37781345400312
            ],
            [
              75.97642163161471,
              9.377880700462068
            ],
            [
              75.97627153892064,
              9.377933686966132
            ],
            [
              75.97611690504901,
              9.377971903226316
            ],
            [
              75.97595921920852,
              9.37799498119914
            ],
            [
              75.9758,
              9.37800269863111
            ],
            [
              75.9756407807915,
              9.37799498119914
            ],
            [
              75.975483094951,
              9.377971903226316
            ],
            [
              75.97532846107937,
              9.377933686966132
            ],
            [
              75.9751783683853,
              9.377880700462068
            ],
            [
              75.97503426234351,
              9.37781345400312
            ],
            [
              75.97489753077396,
              9.377732595209448
            ],
            [
              75.97476949047638,
              9.37763890279544
            ],
            [
              75.97465137454884,
              9.377533279070258
            ],
            [
              75.97454432051231,
              9.377416741248116
            ],
            [
              75.97444935935566,
              9.377290411651947
            ],
            [
              75.97436740560676,
              9.377155506904822
            ],
            [
              75.974299248525,
              9.3770133262132
            ],
            [
              75.97424554450033,
              9.376865238854869
            ],
            [
              75.97420681073189,
              9.376712670992038
            ],
            [
              75.97418342024702,
              9.376557091936633
            ],
            [
              75.97417559830889,
              9.3764
            ],
            [
              75.97418342024702,
              9.376242908063368
            ],
            [
              75.97420681073189,
              9.376087329007962
            ],
            [
              75.97424554450033,
              9.375934761145132
            ],
            [
              75.974299248525,
              9.3757866737868
            ],
            [
              75.97436740560676,
              9.375644493095178
            ],
            [
              75.97444935935566,
              9.375509588348054
            ],
            [
              75.97454432051231,
              9.375383258751885
            ],
            [
              75.97465137454884,
              9.375266720929742
            ],
            [
              75.97476949047638,
              9.375161097204561
            ],
            [
              75.97489753077396,
              9.375067404790553
            ],
            [
              75.97503426234351,
              9.374986545996881
            ],
            [
              75.9751783683853,
              9.374919299537932
            ],
            [
              75.97532846107937,
              9.374866313033868
            ],
            [
              75.975483094951,
              9.374828096773685
            ],
            [
              75.9756407807915,
              9.37480501880086
            ],
            [
              75.9758,
              9.37479730136889
            ],
            [
              75.97595921920852,
              9.37480501880086
            ],
            [
              75.97611690504901,
              9.374828096773685
            ],
            [
              75.97627153892064,
              9.374866313033868
            ],
            [
              75.97642163161471,
              9.374919299537932
            ],
            [
              75.9765657376565,
              9.374986545996881
            ],
            [
              75.97670246922605,
              9.375067404790553
            ],
            [
              75.97683050952364,
              9.375161097204561
            ],
            [
              75.97694862545117,
              9.375266720929742
            ],
            [
              75.9770556794877,
              9.375383258751885
            ],
            [
              75.97715064064435,
              9.375509588348054
            ],
            [
              75.97723259439326,
              9.375644493095178
            ],
            [
              75.97730075147501,
              9.3757866737868
            ],
            [
              75.97735445549968,
              9.375934761145132
            ],
            [
              75.97739318926813,
              9.376087329007962
            ],
            [
              75.977416579753,
              9.376242908063368
            ],
            [
              75.97742440169112,
              9.3764
            ]
          ]
        ]
      }
    },
    {
      "type": "Feature",
      "properties": {
        "incident_id": "MSC-ELSA-3-2025-05-24",
        "timestamp": "2025-05-24T13:00:00Z",
        "suspicion_score": 0.9,
        "area_sq_m": 100000,
        "jurisdiction_zone": "Indian EEZ (West Coast - ICG Regional HQ West / Gandhinagar & Mumbai)",
        "responding_unit": "Coast Guard District HQ No. 4 (Kochi)",
        "feature_type": "Backward Drift Track",
        "hours_back": 6.0
      },
      "geometry": {
        "type": "LineString",
        "coordinates": [
          [
            75.9758,
            9.3764
          ],
          [
            75.931639,
            9.332827
          ]
        ]
      }
    },
    {
      "type": "Feature",
      "properties": {
        "incident_id": "MSC-ELSA-3-2025-05-24",
        "timestamp": "2025-05-24T13:00:00Z",
        "suspicion_score": 0.9,
        "area_sq_m": 100000,
        "jurisdiction_zone": "Indian EEZ (West Coast - ICG Regional HQ West / Gandhinagar & Mumbai)",
        "responding_unit": "Coast Guard District HQ No. 4 (Kochi)",
        "feature_type": "Suspect Dark Vessel",
        "ais_status": "Inactive",
        "rf_x_band_intercepted": true
      },
      "geometry": {
        "type": "Point",
        "coordinates": [
          76.02,
          9.42
        ]
      }
    },
    {
      "type": "Feature",
      "properties": {
        "incident_id": "MSC-ELSA-3-2025-05-24",
        "timestamp": "2025-05-24T13:00:00Z",
        "suspicion_score": 0.9,
        "area_sq_m": 100000,
        "jurisdiction_zone": "Indian EEZ (West Coast - ICG Regional HQ West / Gandhinagar & Mumbai)",
        "responding_unit": "Coast Guard District HQ No. 4 (Kochi)",
        "feature_type": "MSC Elsa 3 Ground Truth"
      },
      "geometry": {
        "type": "Point",
        "coordinates": [
          76.136,
          9.3125
        ]
      }
    }
  ]
}